STARLINK-36899          
1 68058U 26041U   26087.15128923  .00185538  00000+0  11837-2 0  9995
2 68058  53.1604 329.9661 0000876  79.8316 280.2803 15.75324541  4137
STARLINK-36917          
1 68059U 26041V   26087.14224066 -.05976352  00000+0 -57497-1 0  9990
2 68059  53.1588 329.9065 0018404 109.5508 250.7500 15.70609957  4135
STARLINK-36959          
1 68060U 26041W   26087.14675039  .00202080  00000+0  12866-2 0  9997
2 68060  53.1589 329.9347 0001136 143.1098 217.0001 15.75320784  4138
STARLINK-36915          
1 68061U 26041X   26086.93826023  .00335907  00000+0  21014-2 0  9995
2 68061  53.1599 330.7620 0001208  80.5458 279.5699 15.75327784  4108
STARLINK-36952          
1 68062U 26041Y   26087.08751718  .00252794  00000+0  15989-2 0  9997
2 68062  53.1601 330.2811 0000891  76.7876 283.3244 15.75318542  4121
STARLINK-37000          
1 68063U 26041Z   26086.94279948  .00231049  00000+0  14671-2 0  9999
2 68063  53.1602 330.7922 0000968  90.4751 269.6380 15.75294267  4104
STARLINK-36996          
1 68064U 26041AA  26087.16668981 -.00171641  00000+0 -11351-2 0  9999
2 68064  53.1586 329.4165 0000983  83.8750 235.4873 15.75305220  5349
STARLINK-36836          
1 68065U 26041AB  26087.16668981 -.00145509  00000+0 -96069-3 0  9994
2 68065  53.1586 329.4123 0001037  61.8346 259.4351 15.75256854  5347
STARLINK-36976          
1 68066U 26041AC  26087.07877065  .00350279  00000+0  21932-2 0  9996
2 68066  53.1584 330.2201 0001213  57.8964 302.2174 15.75266996  4123
STARLINK-36929          
1 68067U 26041AD  26087.14642224  .00277981  00000+0  17500-2 0  9996
2 68067  53.1585 329.9334 0000646  62.7676 297.3410 15.75350671  4133
STARLINK-36990          
1 68068U 26041AE  26086.97390753  .00262604  00000+0  12885-2 0  9991
2 68068  53.1586 330.2602 0000989  54.3772 305.7343 15.80964857  4112
STARLINK-36766          
1 68069U 26042A   26087.21952821  .00580316  00000+0  27224-2 0  9997
2 68069  53.1588 101.9139 0001658 152.9481 207.1629 15.81098952  5016
